{"type": "FeatureCollection", "features": [ {"type": "Feature", "properties": {"norad_id": 34683, "name": "COSMOS 2251 DEB", "group": "cosmos-2251-debris", "lat": -28.708681991726277, "lon": -83.98662795810942, "alt_km": 671.4521905098982, "timestamp": "2025-12-15T11:38:37.546987+00:00", "meta": {"OBJECT_NAME": "COSMOS 2251 DEB", "OBJECT_ID": "1993-036YD", "EPOCH": "2025-12-14T17:23:41.537184", "MEAN_MOTION": 14.6452262, "ECCENTRICITY": 0.00181016, "INCLINATION": 74.0289, "RA_OF_ASC_NODE": 88.4507, "ARG_OF_PERICENTER": 203.429, "MEAN_ANOMALY": 319.1681, "EPHEMERIS_TYPE": 0, "CLASSIFICATION_TYPE": "U", "NORAD_CAT_ID": 34683, "ELEMENT_SET_NO": 999, "REV_AT_EPOCH": 88377, "BSTAR": 0.0011210235, "MEAN_MOTION_DOT": 5.932e-05, "MEAN_MOTION_DDOT": 0}, "tle": {"line1": "1 34683U 93036YD  25348.72478631  .00005932  00000+0  11210-2 0  9990", "line2": "2 34683  74.0289  88.4507 0018101 203.4290 319.1681 14.64522620883773"}}, "geometry": {"type": "Point", "coordinates": [-83.98662795810942, -28.708681991726277]}}, {"type": "Feature", "properties": {"norad_id": 34685, "name": "COSMOS 2251 DEB", "group": "cosmos-2251-debris", "lat": -63.375339336927766, "lon": 108.72190915010322, "alt_km": 700.7246208354154, "timestamp": "2025-12-15T11:38:37.546997+00:00", "meta": {"OBJECT_NAME": "COSMOS 2251 DEB", "OBJECT_ID": "1993-036YF", "EPOCH": "2025-12-14T20:04:00.127776", "MEAN_MOTION": 14.57529513, "ECCENTRICITY": 0.00142568, "INCLINATION": 74.0287, "RA_OF_ASC_NODE": 144.7963, "ARG_OF_PERICENTER": 249.0273, "MEAN_ANOMALY": 238.274, "EPHEMERIS_TYPE": 0, "CLASSIFICATION_TYPE": "U", "NORAD_CAT_ID": 34685, "ELEMENT_SET_NO": 999, "REV_AT_EPOCH": 88562, "BSTAR": 0.00076385222, "MEAN_MOTION_DOT": 3.451e-05, "MEAN_MOTION_DDOT": 0}, "tle": {"line1": "1 34685U 93036YF  25348.83611259  .00003451  00000+0  76385-3 0  9998", "line2": "2 34685  74.0287 144.7963 0014256 249.0273 238.2740 14.57529513885622"}}, "geometry": {"type": "Point", "coordinates": [108.72190915010322, -63.375339336927766]}}, {"type": "Feature", "properties": {"norad_id": 34689, "name": "COSMOS 2251 DEB", "group": "cosmos-2251-debris", "lat": -27.19344339983976, "lon": -149.8035448552573, "alt_km": 764.6498114244032, "timestamp": "2025-12-15T11:38:37.547007+00:00", "meta": {"OBJECT_NAME": "COSMOS 2251 DEB", "OBJECT_ID": "1993-036YK", "EPOCH": "2025-12-14T17:15:19.046880", "MEAN_MOTION": 14.0448432, "ECCENTRICITY": 0.02276472, "INCLINATION": 74.0918, "RA_OF_ASC_NODE": 219.9541, "ARG_OF_PERICENTER": 288.4174, "MEAN_ANOMALY": 129.0583, "EPHEMERIS_TYPE": 0, "CLASSIFICATION_TYPE": "U", "NORAD_CAT_ID": 34689, "ELEMENT_SET_NO": 999, "REV_AT_EPOCH": 84369, "BSTAR": 0.0026731175, "MEAN_MOTION_DOT": 5.351e-05, "MEAN_MOTION_DDOT": 0}, "tle": {"line1": "1 34689U 93036YK  25348.71897045  .00005351  00000+0  26731-2 0  9998", "line2": "2 34689  74.0918 219.9541 0227647 288.4174 129.0583 14.04484320843692"}}, "geometry": {"type": "Point", "coordinates": [-149.8035448552573, -27.19344339983976]}}, {"type": "Feature", "properties": {"norad_id": 34721, "name": "COSMOS 2251 DEB", "group": "cosmos-2251-debris", "lat": -67.45359825878054, "lon": -82.50857392042701, "alt_km": 764.6757467080615, "timestamp": "2025-12-15T11:38:37.547017+00:00", "meta": {"OBJECT_NAME": "COSMOS 2251 DEB", "OBJECT_ID": "1993-036YP", "EPOCH": "2025-12-14T22:23:16.575072", "MEAN_MOTION": 13.96864168, "ECCENTRICITY": 0.0223519, "INCLINATION": 73.9235, "RA_OF_ASC_NODE": 322.4443, "ARG_OF_PERICENTER": 261.0082, "MEAN_ANOMALY": 127.5066, "EPHEMERIS_TYPE": 0, "CLASSIFICATION_TYPE": "U", "NORAD_CAT_ID": 34721, "ELEMENT_SET_NO": 999, "REV_AT_EPOCH": 85180, "BSTAR": 0.0010575328, "MEAN_MOTION_DOT": 1.791e-05, "MEAN_MOTION_DDOT": 0}, "tle": {"line1": "1 34721U 93036YP  25348.93283073  .00001791  00000+0  10575-2 0  9992", "line2": "2 34721  73.9235 322.4443 0223519 261.0082 127.5066 13.96864168851802"}}, "geometry": {"type": "Point", "coordinates": [-82.50857392042701, -67.45359825878054]}}, {"type": "Feature", "properties": {"norad_id": 34722, "name": "COSMOS 2251 DEB", "group": "cosmos-2251-debris", "lat": -55.606116977535315, "lon": -53.82933398181803, "alt_km": 772.4147287582318, "timestamp": "2025-12-15T11:38:37.547027+00:00", "meta": {"OBJECT_NAME": "COSMOS 2251 DEB", "OBJECT_ID": "1993-036YQ", "EPOCH": "2025-12-14T09:26:45.655872", "MEAN_MOTION": 14.11941622, "ECCENTRICITY": 0.01670711, "INCLINATION": 73.8733, "RA_OF_ASC_NODE": 333.1181, "ARG_OF_PERICENTER": 258.3938, "MEAN_ANOMALY": 254.825, "EPHEMERIS_TYPE": 0, "CLASSIFICATION_TYPE": "U", "NORAD_CAT_ID": 34722, "ELEMENT_SET_NO": 999, "REV_AT_EPOCH": 86268, "BSTAR": 0.00097278289, "MEAN_MOTION_DOT": 2.002e-05, "MEAN_MOTION_DDOT": 0}, "tle": {"line1": "1 34722U 93036YQ  25348.39358398  .00002002  00000+0  97278-3 0  9998", "line2": "2 34722  73.8733 333.1181 0167071 258.3938 254.8250 14.11941622862688"}}, "geometry": {"type": "Point", "coordinates": [-53.82933398181803, -55.606116977535315]}}, {"type": "Feature", "properties": {"norad_id": 34726, "name": "COSMOS 2251 DEB", "group": "cosmos-2251-debris", "lat": 69.34622743557901, "lon": 30.529866973890837, "alt_km": 670.3558479146541, "timestamp": "2025-12-15T11:38:37.547037+00:00", "meta": {"OBJECT_NAME": "COSMOS 2251 DEB", "OBJECT_ID": "1993-036YU", "EPOCH": "2025-12-14T10:37:01.536096", "MEAN_MOTION": 14.59490893, "ECCENTRICITY": 0.0041911, "INCLINATION": 74.029, "RA_OF_ASC_NODE": 343.0756, "ARG_OF_PERICENTER": 133.3589, "MEAN_ANOMALY": 227.1081, "EPHEMERIS_TYPE": 0, "CLASSIFICATION_TYPE": "U", "NORAD_CAT_ID": 34726, "ELEMENT_SET_NO": 999, "REV_AT_EPOCH": 88527, "BSTAR": 0.0004977428, "MEAN_MOTION_DOT": 2.362e-05, "MEAN_MOTION_DDOT": 0}, "tle": {"line1": "1 34726U 93036YU  25348.44237889  .00002362  00000+0  49774-3 0  9996", "line2": "2 34726  74.0290 343.0756 0041911 133.3589 227.1081 14.59490893885275"}}, "geometry": {"type": "Point", "coordinates": [30.529866973890837, 69.34622743557901]}}, {"type": "Feature", "properties": {"norad_id": 34728, "name": "COSMOS 2251 DEB", "group": "cosmos-2251-debris", "lat": 62.77045696555771, "lon": -79.71892724419679, "alt_km": 625.4398986571368, "timestamp": "2025-12-15T11:38:37.547047+00:00", "meta": {"OBJECT_NAME": "COSMOS 2251 DEB", "OBJECT_ID": "1993-036YW", "EPOCH": "2025-12-14T10:51:15.531840", "MEAN_MOTION": 14.70869952, "ECCENTRICITY": 0.00410858, "INCLINATION": 74.0171, "RA_OF_ASC_NODE": 248.4405, "ARG_OF_PERICENTER": 45.5708, "MEAN_ANOMALY": 314.8813, "EPHEMERIS_TYPE": 0, "CLASSIFICATION_TYPE": "U", "NORAD_CAT_ID": 34728, "ELEMENT_SET_NO": 999, "REV_AT_EPOCH": 88825, "BSTAR": 0.00082437634, "MEAN_MOTION_DOT": 5.08e-05, "MEAN_MOTION_DDOT": 0}, "tle": {"line1": "1 34728U 93036YW  25348.45226310  .00005080  00000+0  82438-3 0  9990", "line2": "2 34728  74.0171 248.4405 0041085  45.5708 314.8813 14.70869952888250"}}, "geometry": {"type": "Point", "coordinates": [-79.71892724419679, 62.77045696555771]}}, {"type": "Feature", "properties": {"norad_id": 34729, "name": "COSMOS 2251 DEB", "group": "cosmos-2251-debris", "lat": -18.86568895299458, "lon": 178.61244106207212, "alt_km": 624.8242209462196, "timestamp": "2025-12-15T11:38:37.547057+00:00", "meta": {"OBJECT_NAME": "COSMOS 2251 DEB", "OBJECT_ID": "1993-036YX", "EPOCH": "2025-12-14T20:29:22.310016", "MEAN_MOTION": 14.82870529, "ECCENTRICITY": 0.00118328, "INCLINATION": 74.0181, "RA_OF_ASC_NODE": 354.2425, "ARG_OF_PERICENTER": 112.0974, "MEAN_ANOMALY": 317.9434, "EPHEMERIS_TYPE": 0, "CLASSIFICATION_TYPE": "U", "NORAD_CAT_ID": 34729, "ELEMENT_SET_NO": 999, "REV_AT_EPOCH": 88489, "BSTAR": 0.0011227339, "MEAN_MOTION_DOT": 9.086e-05, "MEAN_MOTION_DDOT": 0}, "tle": {"line1": "1 34729U 93036YX  25348.85373044  .00009086  00000+0  11227-2 0  9999", "line2": "2 34729  74.0181 354.2425 0011832 112.0974 317.9434 14.82870529884896"}}, "geometry": {"type": "Point", "coordinates": [178.61244106207212, -18.86568895299458]}}, {"type": "Feature", "properties": {"norad_id": 34732, "name": "COSMOS 2251 DEB", "group": "cosmos-2251-debris", "lat": 67.71491491659802, "lon": 132.32598070565794, "alt_km": 755.1644793786963, "timestamp": "2025-12-15T11:38:37.547067+00:00", "meta": {"OBJECT_NAME": "COSMOS 2251 DEB", "OBJECT_ID": "1993-036ZA", "EPOCH": "2025-12-14T17:38:04.490016", "MEAN_MOTION": 14.47303428, "ECCENTRICITY": 0.00403825, "INCLINATION": 74.0455, "RA_OF_ASC_NODE": 89.458, "ARG_OF_PERICENTER": 240.1287, "MEAN_ANOMALY": 246.1454, "EPHEMERIS_TYPE": 0, "CLASSIFICATION_TYPE": "U", "NORAD_CAT_ID": 34732, "ELEMENT_SET_NO": 999, "REV_AT_EPOCH": 88172, "BSTAR": 0.00018149984, "MEAN_MOTION_DOT": 6.43e-06, "MEAN_MOTION_DDOT": 0}, "tle": {"line1": "1 34732U 93036ZA  25348.73477419  .00000643  00000+0  18150-3 0  9994", "line2": "2 34732  74.0455  89.4580 0040382 240.1287 246.1454 14.47303428881729"}}, "geometry": {"type": "Point", "coordinates": [132.32598070565794, 67.71491491659802]}}, {"type": "Feature", "properties": {"norad_id": 34736, "name": "COSMOS 2251 DEB", "group": "cosmos-2251-debris", "lat": 51.90229643263644, "lon": -171.26613687703008, "alt_km": 420.81691640736244, "timestamp": "2025-12-15T11:38:37.547077+00:00", "meta": {"OBJECT_NAME": "COSMOS 2251 DEB", "OBJECT_ID": "1993-036ZE", "EPOCH": "2025-12-14T13:24:53.506368", "MEAN_MOTION": 15.49326289, "ECCENTRICITY": 0.00170127, "INCLINATION": 74.0002, "RA_OF_ASC_NODE": 32.2366, "ARG_OF_PERICENTER": 344.441, "MEAN_ANOMALY": 15.6277, "EPHEMERIS_TYPE": 0, "CLASSIFICATION_TYPE": "U", "NORAD_CAT_ID": 34736, "ELEMENT_SET_NO": 999, "REV_AT_EPOCH": 88476, "BSTAR": 0.0064959808, "MEAN_MOTION_DOT": 0.00374954, "MEAN_MOTION_DDOT": 0}, "tle": {"line1": "1 34736U 93036ZE  25348.55895262  .00374954  00000+0  64960-2 0  9996", "line2": "2 34736  74.0002  32.2366 0017012 344.4410  15.6277 15.49326289884761"}}, "geometry": {"type": "Point", "coordinates": [-171.26613687703008, 51.90229643263644]}}]}